NORAD_CAT_ID,OBJECT_NAME,OBJECT_TYPE,EPOCH,MEAN_MOTION,ECCENTRICITY,INCLINATION,RA_OF_ASC_NODE,ARG_OF_PERICENTER,MEAN_ANOMALY,BSTAR,MEAN_MOTION_DOT,MEAN_MOTION_DDOT,TLE_LINE0,TLE_LINE1,TLE_LINE2,SEMIMAJOR_AXIS,PERIOD,APOGEE,PERIGEE,DECAYED
51772.0,STARLINK-3623,PAYLOAD,2023-12-30 06:57:27,15.08850652,0.0001451,53.2184,332.2541,96.607,263.5088,0.00014445,2.012e-05,0.0,0 STARLINK-3623,1 51772U 22017E   23364.28989802  .00002012  00000-0  14445-3 0  9994,2 51772  53.2184 332.2541 0001451  96.6070 263.5088 15.08850652103271,6917.848,95.437,540.717,538.709,0.0
51772.0,STARLINK-3623,PAYLOAD,2023-12-31 03:37:28,15.08837704,0.0001414,53.2182,328.3924,97.6905,262.4248,5.5204e-05,5.91e-06,0.0,0 STARLINK-3623,1 51772U 22017E   23365.15102926  .00000591  00000-0  55204-4 0  9994,2 51772  53.2182 328.3924 0001414  97.6905 262.4248 15.08837704103401,6917.887,95.438,540.731,538.774,0.0
51772.0,STARLINK-3623,PAYLOAD,2023-12-31 06:48:15,15.08840882,0.0001409,53.2182,327.7962,96.7097,263.4056,8.3921e-05,1.048e-05,0.0,0 STARLINK-3623,1 51772U 22017E   23365.28350736  .00001048  00000-0  83921-4 0  9997,2 51772  53.2182 327.7962 0001409  96.7097 263.4056 15.08840882101915,6917.878,95.437,540.717,538.768,0.0
51772.0,STARLINK-3623,PAYLOAD,2024-01-01 05:03:38,15.08846803,0.0001511,53.2188,323.6318,86.4321,273.6844,8.7665e-05,1.108e-05,0.0,0 STARLINK-3623,1 51772U 22017E   24001.21086504  .00001108  00000-0  87665-4 0  9993,2 51772  53.2188 323.6318 0001511  86.4321 273.6844 15.08846803103561,6917.86,95.437,540.77,538.679,0.0
51772.0,STARLINK-3623,PAYLOAD,2024-01-01 20:57:30,15.08842017,0.0001712,53.2186,320.6647,73.3609,286.7571,0.00014222,1.976e-05,0.0,0 STARLINK-3623,1 51772U 22017E   24001.87326837  .00001976  00000-0  14222-3 0  9992,2 51772  53.2186 320.6647 0001712  73.3609 286.7571 15.08842017102157,6917.874,95.437,540.924,538.555,0.0
51772.0,STARLINK-3623,PAYLOAD,2024-01-02 03:19:02,15.08842229,0.0001722,53.2188,319.474,73.6039,286.5143,0.0001337,1.841e-05,0.0,0 STARLINK-3623,1 51772U 22017E   24002.13822867  .00001841  00000-0  13370-3 0  9990,2 51772  53.2188 319.4740 0001722  73.6039 286.5143 15.08842229103700,6917.874,95.437,540.93,538.547,0.0
51772.0,STARLINK-3623,PAYLOAD,2024-01-02 06:29:48,15.08850703,0.0001453,53.2184,318.8758,95.3455,264.7703,0.00017972,2.574e-05,0.0,0 STARLINK-3623,1 51772U 22017E   24002.27070052  .00002574  00000-0  17972-3 0  9992,2 51772  53.2184 318.8758 0001453  95.3455 264.7703 15.08850703103720,6917.848,95.437,540.718,538.708,0.0
51772.0,STARLINK-3623,PAYLOAD,2024-01-03 03:09:49,15.08848486,0.000158,53.2187,315.0056,103.7086,256.4082,5.1111e-05,5.26e-06,0.0,0 STARLINK-3623,1 51772U 22017E   24003.13182213  .00000526  00000-0  51111-4 0  9990,2 51772  53.2187 315.0056 0001580 103.7086 256.4082 15.08848486103855,6917.854,95.437,540.812,538.626,0.0
51772.0,STARLINK-3623,PAYLOAD,2024-01-03 06:20:35,15.0884584,0.000164,53.2186,314.4147,101.6212,258.4964,2.8918e-05,1.72e-06,0.0,0 STARLINK-3623,1 51772U 22017E   24003.26430464  .00000172  00000-0  28918-4 0  9994,2 51772  53.2186 314.4147 0001640 101.6212 258.4964 15.08845840102360,6917.863,95.437,540.862,538.593,0.0
51772.0,STARLINK-3623,PAYLOAD,2024-01-04 03:00:36,15.08844118,0.0001526,53.2188,310.5471,109.004,251.1117,-2.1295e-05,-6.27e-06,0.0,0 STARLINK-3623,1 51772U 22017E   24004.12542641 -.00000627  00000-0 -21295-4 0  9999,2 51772  53.2188 310.5471 0001526 109.0040 251.1117 15.08844118104003,6917.868,95.437,540.788,538.677,0.0
51772.0,STARLINK-3623,PAYLOAD,2024-01-05 06:02:09,15.08845306,0.0001599,53.2187,305.4934,114.6575,245.4584,6.8194e-05,7.98e-06,0.0,0 STARLINK-3623,1 51772U 22017E   24005.25150403  .00000798  00000-0  68194-4 0  9991,2 51772  53.2187 305.4934 0001599 114.6575 245.4584 15.08845306104176,6917.864,95.437,540.835,538.623,0.0
51772.0,STARLINK-3623,PAYLOAD,2024-01-06 01:06:48,15.08841323,0.0001533,53.2178,301.9228,119.2436,240.871,1.4184e-05,-6.2e-07,0.0,0 STARLINK-3623,1 51772U 22017E   24006.04639043 -.00000062  00000-0  14184-4 0  9996,2 51772  53.2178 301.9228 0001533 119.2436 240.8710 15.08841323104296,6917.876,95.437,540.802,538.681,0.0
51772.0,STARLINK-3623,PAYLOAD,2024-01-07 05:43:44,15.08840129,0.0001451,53.2179,296.5712,110.0538,250.0611,-3.1594e-06,-3.38e-06,0.0,0 STARLINK-3623,1 51772U 22017E   24007.23871326 -.00000338  00000-0 -31594-5 0  9992,2 51772  53.2179 296.5712 0001451 110.0538 250.0611 15.08840129104471,6917.88,95.438,540.749,538.741,0.0
51772.0,STARLINK-3623,PAYLOAD,2024-01-08 03:59:07,15.08849855,0.0001297,53.2179,292.4091,95.5412,264.5728,0.00018879,2.719e-05,0.0,0 STARLINK-3623,1 51772U 22017E   24008.16606351  .00002719  00000-0  18879-3 0  9991,2 51772  53.2179 292.4091 0001297  95.5412 264.5728 15.08849855104612,6917.85,95.437,540.613,538.818,0.0
51772.0,STARLINK-3623,PAYLOAD,2024-01-09 02:14:32,15.08841736,0.000175,53.2186,288.2468,66.8529,293.2647,9.7936e-05,1.271e-05,0.0,0 STARLINK-3623,1 51772U 22017E   24009.09343552  .00001271  00000-0  97936-4 0  9999,2 51772  53.2186 288.2468 0001750  66.8529 293.2647 15.08841736104759,6917.875,95.437,540.951,538.529,0.0
51772.0,STARLINK-3623,PAYLOAD,2024-01-09 18:08:23,15.08842815,0.0001594,53.2173,285.2766,84.5602,275.5572,0.00011936,1.612e-05,0.0,0 STARLINK-3623,1 51772U 22017E   24009.75583325  .00001612  00000-0  11936-3 0  9990,2 51772  53.2173 285.2766 0001594  84.5602 275.5572 15.08842815103341,6917.872,95.437,540.839,538.634,0.0
51772.0,STARLINK-3623,PAYLOAD,2024-01-10 03:40:42,15.08856999,0.0001487,53.2168,283.4911,92.6018,267.5145,0.00023344,3.431e-05,0.0,0 STARLINK-3623,1 51772U 22017E   24010.15326432  .00003431  00000-0  23344-3 0  9997,2 51772  53.2168 283.4911 0001487  92.6018 267.5145 15.08856999104918,6917.828,95.436,540.722,538.665,0.0
51772.0,STARLINK-3623,PAYLOAD,2024-01-11 03:31:29,15.08847892,0.000149,53.2157,279.031,100.1358,259.9802,0.00026472,3.928e-05,0.0,0 STARLINK-3623,1 51772U 22017E   24011.14687143  .00003928  00000-0  26472-3 0  9992,2 51772  53.2157 279.0310 0001490 100.1358 259.9802 15.08847892105060,6917.856,95.437,540.752,538.691,0.0
51772.0,STARLINK-3623,PAYLOAD,2024-01-11 17:49:58,15.08838425,0.0001657,53.2165,276.3526,86.1033,274.0149,5.5028e-05,5.88e-06,0.0,0 STARLINK-3623,1 51772U 22017E   24011.74303831  .00000588  00000-0  55028-4 0  9996,2 51772  53.2165 276.3526 0001657  86.1033 274.0149 15.08838425105150,6917.885,95.438,540.896,538.604,0.0
51772.0,STARLINK-3623,PAYLOAD,2024-01-11 21:00:44,15.08841632,0.0002018,53.2157,275.7566,124.2777,235.8406,9.8168e-05,1.275e-05,0.0,0 STARLINK-3623,1 51772U 22017E   24011.87551294  .00001275  00000-0  98168-4 0  9994,2 51772  53.2157 275.7566 0002018 124.2777 235.8406 15.08841632103668,6917.875,95.437,541.136,538.344,0.0
51772.0,STARLINK-3623,PAYLOAD,2024-01-12 00:11:30,15.0884171,0.0001544,53.2164,275.1643,99.3699,260.7468,0.00026843,3.987e-05,0.0,0 STARLINK-3623,1 51772U 22017E   24012.00799595  .00003987  00000-0  26843-3 0  9990,2 51772  53.2164 275.1643 0001544  99.3699 260.7468 15.08841710103688,6917.875,95.437,540.808,538.672,0.0
51772.0,STARLINK-3623,PAYLOAD,2024-01-12 22:26:55,15.08837813,0.0001556,53.2157,271.0034,99.0315,261.0853,0.00015404,2.164e-05,0.0,0 STARLINK-3623,1 51772U 22017E   24012.93536242  .00002164  00000-0  15404-3 0  9997,2 51772  53.2157 271.0034 0001556  99.0315 261.0853 15.08837813103821,6917.887,95.438,540.828,538.676,0.0
51772.0,STARLINK-3623,PAYLOAD,2024-01-14 03:03:50,15.08857492,0.0001632,53.216,265.6494,109.9789,250.1379,0.00039444,5.998e-05,0.0,0 STARLINK-3623,1 51772U 22017E   24014.12767297  .00005998  00000-0  39444-3 0  9994,2 51772  53.2160 265.6494 0001632 109.9789 250.1379 15.08857492105510,6917.827,95.436,540.821,538.563,0.0
51772.0,STARLINK-3623,PAYLOAD,2024-01-14 17:22:19,15.08840071,0.0001243,53.2162,262.975,88.3714,271.7421,3.6579e-05,2.94e-06,0.0,0 STARLINK-3623,1 51772U 22017E   24014.72383897  .00000294  00000-0  36579-4 0  9991,2 51772  53.2162 262.9750 0001243  88.3714 271.7421 15.08840071105605,6917.88,95.438,540.605,538.885,0.0
51772.0,STARLINK-3623,PAYLOAD,2024-01-14 22:08:28,15.0884379,0.0001501,53.2155,262.0728,78.9168,281.1993,8.7126e-05,1.099e-05,0.0,0 STARLINK-3623,1 51772U 22017E   24014.92255770  .00001099  00000-0  87126-4 0  9999,2 51772  53.2155 262.0728 0001501  78.9168 281.1993 15.08843790104124,6917.869,95.437,540.772,538.695,0.0
51772.0,STARLINK-3623,PAYLOAD,2024-01-15 02:54:38,15.088486,0.000157,53.2158,261.1885,98.1017,262.0153,0.00018461,2.652e-05,0.0,0 STARLINK-3623,1 51772U 22017E   24015.12127513  .00002652  00000-0  18461-3 0  9996,2 51772  53.2158 261.1885 0001570  98.1017 262.0153 15.08848600105665,6917.854,95.437,540.805,538.633,0.0
51772.0,STARLINK-3623,PAYLOAD,2024-01-15 20:23:52,15.08839626,0.0001543,53.2155,257.9137,79.8939,280.2227,-8.5928e-05,-1.655e-05,0.0,0 STARLINK-3623,1 51772U 22017E   24015.84991799 -.00001655  00000-0 -85928-4 0  9997,2 51772  53.2155 257.9137 0001543  79.8939 280.2227 15.08839626104261,6917.882,95.438,540.814,538.679,0.0
51772.0,STARLINK-3623,PAYLOAD,2024-01-15 23:34:38,15.08846115,0.0001608,53.2156,257.3202,100.1451,259.9722,-5.3853e-06,-3.74e-06,0.0,0 STARLINK-3623,1 51772U 22017E   24015.98239430 -.00000374  00000-0 -53853-5 0  9999,2 51772  53.2156 257.3202 0001608 100.1451 259.9722 15.08846115105791,6917.862,95.437,540.839,538.614,0.0
51772.0,STARLINK-3623,PAYLOAD,2024-01-16 15:28:30,15.08834685,0.0001446,53.2163,254.3466,97.0468,263.0689,2.7793e-05,1.54e-06,0.0,0 STARLINK-3623,1 51772U 22017E   24016.64480257  .00000154  00000-0  27793-4 0  9995,2 51772  53.2163 254.3466 0001446  97.0468 263.0689 15.08834685105898,6917.897,95.438,540.762,538.761,0.0
51772.0,STARLINK-3623,PAYLOAD,2024-01-16 21:50:03,15.08839785,0.0001485,53.2155,253.1583,91.4103,268.706,7.6955e-05,9.37e-06,0.0,0 STARLINK-3623,1 51772U 22017E   24016.90976096  .00000937  00000-0  76955-4 0  9998,2 51772  53.2155 253.1583 0001485  91.4103 268.7060 15.08839785104422,6917.881,95.438,540.773,538.719,0.0
